#cP2023  6  9  0  0  0.00000000      96 ORBIT IGS20 HLM  IGS
## 2265 432000.00000000   900.00000000 60104 0.0000000000000
+   32   G01G02G03G04G05G06G07G08G09G10G11G12G13G14G15G16G17
+        G18G19G20G21G22G23G24G25G26G27G28G29G30G31G32  0  0
+          0  0  0  0  0  0  0  0  0  0  0  0  0  0  0  0  0
+          0  0  0  0  0  0  0  0  0  0  0  0  0  0  0  0  0
+          0  0  0  0  0  0  0  0  0  0  0  0  0  0  0  0  0
++         2  4  2  2  2  2  2  2  1  2  2  2  2  2  2  2  2
++         2  2  2  2  2  2  2  2  2  2  2  2  1  2  2  0  0
++         0  0  0  0  0  0  0  0  0  0  0  0  0  0  0  0  0
++         0  0  0  0  0  0  0  0  0  0  0  0  0  0  0  0  0
++         0  0  0  0  0  0  0  0  0  0  0  0  0  0  0  0  0
%c G  cc GPS ccc cccc cccc cccc cccc ccccc ccccc ccccc ccccc
%c cc cc ccc ccc cccc cccc cccc cccc ccccc ccccc ccccc ccccc
%f  1.2500000  1.025000000  0.00000000000  0.000000000000000
%f  0.0000000  0.000000000  0.00000000000  0.000000000000000
%i    0    0    0    0      0      0      0      0         0
%i    0    0    0    0      0      0      0      0         0
/* RAPID ORBIT COMBINATION FROM WEIGHTED AVERAGE OF:        
/* cod emr esa gfz grg jpl ngs usn whu                      
/* REFERENCED TO IGS TIME (IGST) AND TO WEIGHTED MEAN POLE: 
/* PCV:IGS20_2233 OL/AL:FES2014b NONE     Y  ORB:CMB CLK:CMB
*  2023  6  9 21 45  0.00000000
PG01  -6996.420090  17885.936338 -18525.121259    179.414457  3  6  6  72       
PG02 -12105.685070  19365.826380 -12931.706931   -587.290790    10  8  96       
PG03   4265.585183  17590.398482 -19614.706300   -275.985704  5  5  6  83       
PG04   -204.710125  26486.043286    762.803671     63.977621  6  7  4  99       
PG05  12728.394878  -9787.757767  21000.949039   -130.488351  5  3  4 112       
PG06  22761.140521  -2887.572965 -13406.944814    585.788616  5  4  6  67       
PG07   9450.555930  12594.297999  21874.404632    156.543028  3  5  5  95       
PG08  -6959.998595  22894.802247  11017.618091   -126.606422     6  7 104       
PG09   7761.567241  23280.710730  10031.737708   -139.505131  2  3  6  91       
PG10 -24099.427417 -10974.979250  -3466.270045    -40.483783  6  7  6  68       
PG11  23296.837100 -12689.983959    735.934259   -229.224902  3  5  3  83       
PG12    196.700109 -17040.678328 -20669.644406   -386.593890  6  5  7 106       
PG13  12982.943387 -16904.238247  15534.899782    531.800747  2  4  5 113       
PG14  23054.522921  13329.638023   -883.149198     85.339911 10  9  6  99       
PG15   3864.059649 -24005.697503   9914.433752     47.374940  6  6  2  97       
PG16 -16749.139247   5082.934189  19802.335132   -493.077373  6  5  6  85       
PG17  13177.441842  10264.021448 -20198.301204    717.836079  6  7  4  93       
PG18 -11839.120111 -10134.652309  21526.341222   -301.176655  6  8  8  98       
PG19  14956.282821   1686.948096 -22106.435232    328.412922  6  8  5  76       
PG20  20348.249426  -4989.725261  16245.314396    428.889324  5  2  4  96       
PG21 -14267.089853  18987.783509 -10388.299766    153.235452  4  6  7  92       
PG22 -15049.241618   2538.553481 -21270.846857    495.315836  6  7  5  66       
PG23 -19200.028800 -16529.416240   8240.075807     31.678075  8 11  8  99       
PG24   9615.269914 -20062.639771 -14548.350913   -219.250628  6  5  6 103       
PG25 -12641.140236 -18727.820814 -14484.766077    448.719867  7  7  6  85       
PG26 -23970.350356  -2100.159019  11496.817029    239.378055  5  7  6  71       
PG27 -12715.406668  13421.400911  18658.060781     19.756985  4  7  6  87       
PG28 -21996.446169   1699.948821 -14807.630300     82.761419  6  5  5  47       
PG29  -3912.146788 -24852.428913   8314.430414   -602.294014  6  5  8  73       
PG30  18633.775016   5007.979039  18475.935619   -512.057808  3  2  3  83       
PG31 -24466.359078  10081.875999  -4350.832498   -217.834603  6  5  5  76       
PG32 -14680.153422  -7202.485616 -20787.500345   -496.579810  7  4  4  98       
*  2023  6  9 22  0  0.00000000
PG01  -8734.676261  18805.879085 -16727.320202    179.412223  4  6  6  88       
PG02 -13371.319525  20039.453050 -10514.626376   -587.287604     9  9           
PG03   2217.380444  16593.885262 -20783.950612   -275.974074  5  5  6  93       
PG04   -464.108410  26409.087816  -2102.258614     63.986802  6  7  5 108       
PG05  14853.642542  -8707.996665  20078.369578   -130.489706  5  3  4 106       
PG06  21415.240813  -1906.511973 -15601.339055    585.787061  6  4  5  94       
PG07   7401.162762  13857.717654  21856.783553    156.533963  4  5  5  92       
PG08  -7298.342781  21493.648977  13389.028249   -126.608473  1  7  7 101       
PG09   7573.624557  24303.986855   7425.355904   -139.497223  2  3  6  89       
PG10 -24237.736894 -11249.553541   -605.027208    -40.485336  7  7  6 110       
PG11  23347.067682 -12436.430179  -2129.878136   -229.238192  4  5  4 100       
PG12   2228.593098 -15855.673289 -21481.230402   -386.597924  6  5  7 115       
PG13  12959.288391 -14975.722219  17417.389508    531.805334  3  3  5 114       
PG14  22866.882381  13541.848636   1938.955399     85.351127  9  9  6  92       
PG15   4415.070129 -22736.261163  12305.309355     47.377868  6  6  3  99       
PG16 -18574.442485   3789.159494  18479.254736   -493.074014  7  4  6  84       
PG17  13019.140901  12586.224251 -18966.431355    717.837223  6  7  4  90       
PG18  -9729.017838 -11439.184768  21912.190510   -301.190290  5  8  8  84       
PG19  14789.390079   4147.165248 -21918.239327    328.417365  6  8  5  95       
PG20  21943.627209  -4242.721849  14236.942125    428.887409  6  3  4 103       
PG21 -15351.990175  19431.172303  -7752.841285    153.234704  4  6  7  90       
PG22 -14965.409228     -4.947579 -21490.035481    495.321546  6  7  5  71       
PG23 -18144.975340 -16218.070103  10828.414988     31.681275  8 11  8  97       
PG24  10981.741929 -20757.424697 -12352.129581   -219.262597  6  5  6  84       
PG25 -11037.158418 -18102.001942 -16473.454966    448.722149  7  7  6  76       
PG26 -24946.497254  -2825.152500   9059.227004    239.377424  5  7  6  65       
PG27 -12945.167016  11160.011760  19964.312370     19.750103  4  7  6  86       
PG28 -20603.935675    540.753206 -16771.353565     82.762555  6  5  6  60       
PG29  -3675.203248 -25646.014541   5571.347391   -602.294632  6  5  8  64       
PG30  16863.527741   6261.324184  19734.594209   -512.055620  3     3  93       
PG31 -24047.820352   9561.714021  -7069.597897   -217.835416  7  5  5  74       
PG32 -14711.645634  -9559.565490 -19817.971143   -496.587500  7  3  4 102       
*  2023  6  9 22 15  0.00000000
PG01 -10242.181526  19698.970342 -14644.303392    179.409959  4  7  6  88       
PG02 -14376.213672  20592.290788  -7910.830404   -587.284616     7  9  90       
PG03     14.605618  15666.349504 -21600.660469   -275.962426  5  5  5  93       
PG04   -747.878210  26023.071896  -4930.878145     63.995977  6  6  5  92       
PG05  16915.064995  -7788.950077  18805.964877   -130.490781  5  3  5 106       
PG06  19935.429146   -715.110372 -17527.357845    585.785559  6  5  5  95       
PG07   5433.399512  15215.370429  21477.805726    156.525043  5  6  5  80       
PG08  -7739.013127  19857.041749  15524.575433   -126.610670  2  7  7  96       
PG09   7402.389768  25034.598471   4690.551525   -139.489311  3  3  6  92       
PG10 -24097.208054 -11382.440055   2266.453843    -40.486491  7  8  7  96       
PG11  23139.026326 -12011.166918  -4958.940613   -229.251601  4  6  4  98       
PG12   4383.357233 -14747.899169 -21932.679806   -386.602155  7  5  7 112       
PG13  13029.730907 -12851.192053  18993.775582    531.810163  3  3  5 116       
PG14  22406.696197  13623.785762   4728.008926     85.362372  9  8  5  94       
PG15   5087.936080 -21238.230652  14476.234643     47.381338  6  6  4 105       
PG16 -20314.446457   2680.049603  16835.038271   -493.070665  7  4  6  86       
PG17  12978.650301  14750.355323 -17395.464509    717.838126  6  7  4  96       
PG18  -7673.009132 -12869.754452  21921.175239   -301.203903  4  8  8  88       
PG19  14757.940397   6568.454611 -21361.447764    328.421926  7  8  6  92       
PG20  23341.591262  -3637.105666  11981.877763    428.885339  7  4  5 103       
PG21 -16170.920841  19724.278649  -4974.296163    153.234744  4  6  7  93       
PG22 -15011.498672  -2550.873303 -21323.490508    495.326854  6  7  5  90       
PG23 -16813.762157 -15856.266198  13231.987195     31.684441  7 11  9 109       
PG24  12121.183073 -21347.468923  -9942.728945   -219.274515  6  5  6  63       
PG25  -9214.357136 -17477.325964 -18187.688210    448.724456  7  6  6  91       
PG26 -25691.850670  -3401.197111   6467.967231    239.376692  5  7  6  58       
PG27 -13305.031616   8786.924596  20916.010619     19.743215  4  7  6  92       
PG28 -19110.848271   -815.071458 -18446.861098     82.763719  6  5  6  81       
PG29  -3474.518687 -26133.754299   2731.720610   -602.295743  6  5  8  74       
PG30  15054.921840   7670.650719  20659.059170   -512.053461  3     3  90       
PG31 -23411.304861   8853.434622  -9670.281316   -217.836079  7  5  5  65       
PG32 -14851.180641 -11780.138434 -18503.862284   -496.595230  7  4  4 103       
EOF
